NORAD_CAT_ID,OBJECT_NAME,OBJECT_TYPE,EPOCH,MEAN_MOTION,ECCENTRICITY,INCLINATION,RA_OF_ASC_NODE,ARG_OF_PERICENTER,MEAN_ANOMALY,BSTAR,MEAN_MOTION_DOT,MEAN_MOTION_DDOT,TLE_LINE0,TLE_LINE1,TLE_LINE2,SEMIMAJOR_AXIS,PERIOD,APOGEE,PERIGEE,DECAYED
53171.0,STARLINK-4052,PAYLOAD,2023-09-30 18:20:15,15.0883962,0.0001711,53.2162,173.4022,96.773,263.3457,-0.00027161,-4.608e-05,0.0,0 STARLINK-4052,1 53171U 22083AR  23273.76407077 -.00004608  00000-0 -27161-3 0  9997,2 53171  53.2162 173.4022 0001711  96.7730 263.3457 15.08839620 67914,6917.882,95.438,540.93,538.563,0.0
53171.0,STARLINK-4052,PAYLOAD,2023-10-01 02:17:11,15.08840315,0.0001688,53.2143,171.9087,127.203,232.9116,-1.7802e-05,-5.71e-06,0.0,0 STARLINK-4052,1 53171U 22083AR  23274.09527098 -.00000571  00000-0 -17802-4 0  9997,2 53171  53.2143 171.9087 0001688 127.2030 232.9116 15.08840315 67325,6917.879,95.438,540.912,538.577,0.0
53171.0,STARLINK-4052,PAYLOAD,2023-10-01 21:21:49,15.088438,0.0001381,53.2149,168.3424,123.134,236.9785,9.0859e-05,1.159e-05,0.0,0 STARLINK-4052,1 53171U 22083AR  23274.89015248  .00001159  00000-0  90859-4 0  9998,2 53171  53.2149 168.3424 0001381 123.1340 236.9785 15.08843800 67446,6917.869,95.437,540.689,538.778,0.0
53171.0,STARLINK-4052,PAYLOAD,2023-10-02 02:07:58,15.08850396,0.0001329,53.2153,167.4499,102.8669,257.2471,0.00044166,6.75e-05,0.0,0 STARLINK-4052,1 53171U 22083AR  23275.08887298  .00006750  00000-0  44166-3 0  9993,2 53171  53.2153 167.4499 0001329 102.8669 257.2471 15.08850396 68114,6917.849,95.437,540.633,538.794,0.0
53171.0,STARLINK-4052,PAYLOAD,2023-10-02 10:04:54,15.08842409,0.0001388,53.2146,165.9627,97.6378,262.4772,0.00026614,3.95e-05,0.0,0 STARLINK-4052,1 53171U 22083AR  23275.42007724  .00003950  00000-0  26614-3 0  9996,2 53171  53.2146 165.9627 0001388  97.6378 262.4772 15.08842409 68168,6917.873,95.437,540.698,538.778,0.0
53171.0,STARLINK-4052,PAYLOAD,2023-10-02 21:12:36,15.08842315,0.0001283,53.2159,163.8799,102.8177,257.2959,0.00020991,3.055e-05,0.0,0 STARLINK-4052,1 53171U 22083AR  23275.88375663  .00003055  00000-0  20991-3 0  9994,2 53171  53.2159 163.8799 0001283 102.8177 257.2959 15.08842315 67590,6917.873,95.437,540.626,538.851,0.0
53171.0,STARLINK-4052,PAYLOAD,2023-10-03 09:55:41,15.08837361,0.0001466,53.2147,161.5044,91.0041,269.1119,9.0303e-05,1.149e-05,0.0,0 STARLINK-4052,1 53171U 22083AR  23276.41367920  .00001149  00000-0  90303-4 0  9998,2 53171  53.2147 161.5044 0001466  91.0041 269.1119 15.08837361 68313,6917.888,95.438,540.768,538.739,0.0
53171.0,STARLINK-4052,PAYLOAD,2023-10-03 22:38:47,15.08836648,0.0001497,53.2154,159.1241,88.3401,271.7763,9.1554e-05,1.169e-05,0.0,0 STARLINK-4052,1 53171U 22083AR  23276.94360271  .00001169  00000-0  91554-4 0  9999,2 53171  53.2154 159.1241 0001497  88.3401 271.7763 15.08836648 67754,6917.891,95.438,540.791,538.72,0.0
53171.0,STARLINK-4052,PAYLOAD,2023-10-04 01:49:33,15.0883925,0.0001475,53.2153,158.5287,90.6883,269.4278,0.000184,2.642e-05,0.0,0 STARLINK-4052,1 53171U 22083AR  23277.07608222  .00002642  00000-0  18400-3 0  9990,2 53171  53.2153 158.5287 0001475  90.6883 269.4278 15.08839250 67771,6917.883,95.438,540.768,538.727,0.0
53171.0,STARLINK-4052,PAYLOAD,2023-10-04 22:29:33,15.08856881,0.0001373,53.2156,154.6612,96.9938,263.121,0.00047926,7.351e-05,0.0,0 STARLINK-4052,1 53171U 22083AR  23277.93719511  .00007351  00000-0  47926-3 0  9996,2 53171  53.2156 154.6612 0001373  96.9938 263.1210 15.08856881 67901,6917.829,95.436,540.644,538.744,0.0
53171.0,STARLINK-4052,PAYLOAD,2023-10-05 01:40:19,15.08864535,0.0001381,53.2148,154.0671,91.9069,268.2081,0.00084908,0.0001326,0.0,0 STARLINK-4052,1 53171U 22083AR  23278.06967433  .00013260  00000-0  84908-3 0  9996,2 53171  53.2148 154.0671 0001381  91.9069 268.2081 15.08864535 68560,6917.805,95.436,540.626,538.715,0.0
53171.0,STARLINK-4052,PAYLOAD,2023-10-05 19:09:34,15.0884575,0.0001578,53.2154,150.7954,105.4335,254.6832,0.00025841,3.828e-05,0.0,0 STARLINK-4052,1 53171U 22083AR  23278.79831765  .00003828  00000-0  25841-3 0  9994,2 53171  53.2154 150.7954 0001578 105.4335 254.6832 15.08845750 68672,6917.863,95.437,540.819,538.636,0.0
53171.0,STARLINK-4052,PAYLOAD,2023-10-05 22:20:20,15.08846549,0.0001538,53.2154,150.201,102.0138,258.1027,0.00039701,6.037e-05,0.0,0 STARLINK-4052,1 53171U 22083AR  23278.93079792  .00006037  00000-0  39701-3 0  9999,2 53171  53.2154 150.2010 0001538 102.0138 258.1027 15.08846549 68054,6917.86,95.437,540.789,538.661,0.0
53171.0,STARLINK-4052,PAYLOAD,2023-10-06 01:31:07,15.08844935,0.0001555,53.2156,149.6083,99.1003,261.0165,0.00040139,6.107e-05,0.0,0 STARLINK-4052,1 53171U 22083AR  23279.06327846  .00006107  00000-0  40139-3 0  9995,2 53171  53.2156 149.6083 0001555  99.1003 261.0165 15.08844935 68079,6917.865,95.437,540.806,538.655,0.0
53171.0,STARLINK-4052,PAYLOAD,2023-10-06 19:00:22,15.08827685,0.0001929,53.2162,146.3359,113.2928,246.8267,0.00034502,5.205e-05,0.0,0 STARLINK-4052,1 53171U 22083AR  23279.79192740  .00005205  00000-0  34502-3 0  9993,2 53171  53.2162 146.3359 0001929 113.2928 246.8267 15.08827685 68825,6917.918,95.438,541.117,538.449,0.0
53171.0,STARLINK-4052,PAYLOAD,2023-10-06 22:11:08,15.08836516,0.000144,53.2154,145.7435,89.7383,270.3774,1.2022e-05,-9.7e-07,0.0,0 STARLINK-4052,1 53171U 22083AR  23279.92440417 -.00000097  00000-0  12022-4 0  9994,2 53171  53.2154 145.7435 0001440  89.7383 270.3774 15.08836516 68204,6917.891,95.438,540.752,538.76,0.0
53171.0,STARLINK-4052,PAYLOAD,2023-10-06 23:46:31,15.08837704,0.0001506,53.2155,145.4457,92.8935,267.223,7.5472e-05,9.13e-06,0.0,0 STARLINK-4052,1 53171U 22083AR  23279.99064432  .00000913  00000-0  75472-4 0  9994,2 53171  53.2155 145.4457 0001506  92.8935 267.2230 15.08837704 68210,6917.887,95.438,540.794,538.711,0.0
53171.0,STARLINK-4052,PAYLOAD,2023-10-07 18:51:09,15.08842655,0.0001501,53.216,141.8786,94.8369,265.2794,0.00033064,4.978e-05,0.0,0 STARLINK-4052,1 53171U 22083AR  23280.78552859  .00004978  00000-0  33064-3 0  9993,2 53171  53.2160 141.8786 0001501  94.8369 265.2794 15.08842655 68336,6917.872,95.437,540.776,538.699,0.0
53171.0,STARLINK-4052,PAYLOAD,2023-10-07 23:37:18,15.08850246,0.0001484,53.216,140.9859,90.7043,269.4119,0.0004824,7.4e-05,0.0,0 STARLINK-4052,1 53171U 22083AR  23280.98424644  .00007400  00000-0  48240-3 0  9990,2 53171  53.2160 140.9859 0001484  90.7043 269.4119 15.08850246 69008,6917.849,95.437,540.741,538.687,0.0
53171.0,STARLINK-4052,PAYLOAD,2023-10-08 07:34:14,15.08843945,0.0001433,53.2162,139.497,96.2355,263.8801,0.00022507,3.296e-05,0.0,0 STARLINK-4052,1 53171U 22083AR  23281.31544567  .00003296  00000-0  22507-3 0  9992,2 53171  53.2162 139.4970 0001433  96.2355 263.8801 15.08843945 69057,6917.868,95.437,540.725,538.742,0.0
53171.0,STARLINK-4052,PAYLOAD,2023-10-08 20:17:19,15.08849255,0.0001523,53.2158,137.1199,90.4137,269.7029,0.00022977,3.372e-05,0.0,0 STARLINK-4052,1 53171U 22083AR  23281.84536400  .00003372  00000-0  22977-3 0  9993,2 53171  53.2158 137.1199 0001523  90.4137 269.7029 15.08849255 68498,6917.852,95.437,540.771,538.664,0.0
53171.0,STARLINK-4052,PAYLOAD,2023-10-09 07:25:01,15.08847328,0.0002108,53.2157,135.0375,81.3219,278.8012,0.00017554,2.507e-05,0.0,0 STARLINK-4052,1 53171U 22083AR  23282.30904539  .00002507  00000-0  17554-3 0  9991,2 53171  53.2157 135.0375 0002108  81.3219 278.8012 15.08847328 68560,6917.858,95.437,541.181,538.265,0.0
53171.0,STARLINK-4052,PAYLOAD,2023-10-09 18:32:43,15.08835684,0.0001836,53.216,132.9593,88.6838,271.4365,-4.6818e-05,-1.033e-05,0.0,0 STARLINK-4052,1 53171U 22083AR  23282.77272732 -.00001033  00000-0 -46818-4 0  9996,2 53171  53.2160 132.9593 0001836  88.6838 271.4365 15.08835684 69277,6917.894,95.438,541.029,538.488,0.0
53171.0,STARLINK-4052,PAYLOAD,2023-10-09 21:43:29,15.08839459,0.0001434,53.2157,132.3614,87.222,272.8937,3.5706e-05,2.8e-06,0.0,0 STARLINK-4052,1 53171U 22083AR  23282.90520651  .00000280  00000-0  35706-4 0  9992,2 53171  53.2157 132.3614 0001434  87.2220 272.8937 15.08839459 68650,6917.882,95.438,540.739,538.755,0.0
53171.0,STARLINK-4052,PAYLOAD,2023-10-10 07:15:48,15.08843305,0.0001462,53.2152,130.5774,86.7916,273.3243,0.0003346,5.042e-05,0.0,0 STARLINK-4052,1 53171U 22083AR  23283.30264668  .00005042  00000-0  33460-3 0  9995,2 53171  53.2152 130.5774 0001462  86.7916 273.3243 15.08843305 68717,6917.87,95.437,540.747,538.724,0.0
53171.0,STARLINK-4052,PAYLOAD,2023-10-10 21:34:16,15.0885193,0.0001289,53.2148,127.9006,91.0497,269.0642,0.00067755,0.00010515,0.0,0 STARLINK-4052,1 53171U 22083AR  23283.89880487  .00010515  00000-0  67755-3 0  9997,2 53171  53.2148 127.9006 0001289  91.0497 269.0642 15.08851930 68808,6917.844,95.437,540.601,538.817,0.0
53171.0,STARLINK-4052,PAYLOAD,2023-10-10 23:09:39,15.08854468,0.0001305,53.2145,127.6039,87.568,272.5462,0.00075869,0.00011812,0.0,0 STARLINK-4052,1 53171U 22083AR  23283.96504442  .00011812  00000-0  75869-3 0  9995,2 53171  53.2145 127.6039 0001305  87.5680 272.5462 15.08854468 69451,6917.836,95.437,540.604,538.798,0.0
53171.0,STARLINK-4052,PAYLOAD,2023-10-11 07:06:35,15.08843825,0.0001227,53.2154,126.1163,97.8406,262.2725,0.00024982,3.691e-05,0.0,0 STARLINK-4052,1 53171U 22083AR  23284.29624507  .00003691  00000-0  24982-3 0  9993,2 53171  53.2154 126.1163 0001227  97.8406 262.2725 15.08843825 69505,6917.869,95.437,540.583,538.885,0.0
53171.0,STARLINK-4052,PAYLOAD,2023-10-11 13:28:08,15.08842845,0.0002102,53.2157,124.9277,89.1994,270.9239,0.00030711,4.603e-05,0.0,0 STARLINK-4052,1 53171U 22083AR  23284.56120945  .00004603  00000-0  30711-3 0  9991,2 53171  53.2157 124.9277 0002102  89.1994 270.9239 15.08842845 68909,6917.872,95.437,541.191,538.283,0.0
53171.0,STARLINK-4052,PAYLOAD,2023-10-11 23:00:27,15.08842174,0.00017,53.2156,123.1423,97.3331,262.7854,0.00023939,3.524e-05,0.0,0 STARLINK-4052,1 53171U 22083AR  23284.95864912  .00003524  00000-0  23939-3 0  9998,2 53171  53.2156 123.1423 0001700  97.3331 262.7854 15.08842174 69606,6917.874,95.437,540.915,538.563,0.0
